Pincode,Location,District,State
110001,Baroda House  ,CENTRAL DELHI,DELHI
110001,Bengali Market  ,CENTRAL DELHI,DELHI
110001,Bhagat Singh Market  ,CENTRAL DELHI,DELHI
110001,Connaught Place  ,CENTRAL DELHI,DELHI
110001,Constitution House  ,CENTRAL DELHI,DELHI
110005,Election Commission  ,SOUTH DELHI,DELHI
110005,Anand Parbat Indl. Area  ,SOUTH DELHI,DELHI
110005,Anand Parbat  ,SOUTH DELHI,DELHI
110005,Bank Street  ,SOUTH DELHI,DELHI
110005,Desh Bandhu Gupta Road  ,SOUTH DELHI,DELHI
110005,Karol Bagh  ,SOUTH DELHI,DELHI
110005,Master Prithvi Nath Marg  ,SOUTH DELHI,DELHI
110031,Gandhi Nagar Bazar  ,EAST DELHI,DELHI
110031,Gandhi Nagar  ,EAST DELHI,DELHI
110031,Geeta Colony  ,EAST DELHI,DELHI
110031,Kailash Nagar  ,EAST DELHI,DELHI
110031,Raghubar Pura  ,EAST DELHI,DELHI
110031,Rajgarh Colony  ,EAST DELHI,DELHI
110031,Shastri Nagar  ,EAST DELHI,DELHI
110051,Azad Nagar  ,NORTH EAST DELHI,DELHI
110051,Govind Pura  ,NORTH EAST DELHI,DELHI
110051,Ram Nagar  ,NORTH EAST DELHI,DELHI
110051,Brahampuri  ,NORTH EAST DELHI,DELHI
110051,Bhajan Pura  ,NORTH EAST DELHI,DELHI
110051,Jafrabad  ,NORTH EAST DELHI,DELHI
110051,Jagjit Nagar  ,NORTH EAST DELHI,DELHI
110051,Maujpur  ,NORTH EAST DELHI,DELHI
110051,Seelampur  ,NORTH EAST DELHI,DELHI
110051,Yamuna Vihar  ,NORTH EAST DELHI,DELHI
110051,Himmatpuri  ,NORTH EAST DELHI,DELHI
110051,Kalyanpuri  ,NORTH EAST DELHI,DELHI
110006,Baratooti  ,NORTH DELHI,DELHI
110006,Chandni Chowk  ,NORTH DELHI,DELHI
110006,Chawri Bazar,NORTH DELHI,DELHI
110006,Dareeba  ,NORTH DELHI,DELHI
110006,Gulabi Bagh  ,NORTH DELHI,DELHI
110006,Kamla Nagar  ,NORTH DELHI,DELHI
110006,Malka Ganj  ,NORTH DELHI,DELHI
110006,Padam Nagar  ,NORTH DELHI,DELHI
110006,Civil Lines  ,NORTH DELHI,DELHI
110006,Distt Courts  ,NORTH DELHI,DELHI
110006,Patrachar Vidyalay  ,NORTH DELHI,DELHI
110006,Burari  ,NORTH DELHI,DELHI
110010,Station Road  ,SOUTH WEST DELHI,DELHI
110010,Subroto Park  ,SOUTH WEST DELHI,DELHI
110028,Dindarpur  ,SOUTH WEST DELHI,DELHI
110028,Dulsiras  ,SOUTH WEST DELHI,DELHI
110028,Galib Pur  ,SOUTH WEST DELHI,DELHI
110028,Ghuman Hera  ,SOUTH WEST DELHI,DELHI
110028,Indira Park  ,SOUTH WEST DELHI,DELHI
110028,Issapur  ,SOUTH WEST DELHI,DELHI
110028,Jafarpur  ,SOUTH WEST DELHI,DELHI
110028,Jharoda Kalan  ,SOUTH WEST DELHI,DELHI
110028,Jhatikara  ,SOUTH WEST DELHI,DELHI
110028,Kair  ,SOUTH WEST DELHI,DELHI
110028,Kangan Heri  ,SOUTH WEST DELHI,DELHI
110028,Khaira  ,SOUTH WEST DELHI,DELHI
110028,Khera Dabur  ,SOUTH WEST DELHI,DELHI
110028,Malik Pur  ,SOUTH WEST DELHI,DELHI
110028,Mitraon  ,SOUTH WEST DELHI,DELHI
110028,Mundela Kalan  ,SOUTH WEST DELHI,DELHI
110028,Naraina Industrial Estate  ,SOUTH WEST DELHI,DELHI
110028,Naraina Village  ,SOUTH WEST DELHI,DELHI
110015,Mansarover Garden  ,WEST DELHI,DELHI
110015,Matiala  ,WEST DELHI,DELHI
110015,Nilothi  ,WEST DELHI,DELHI
110015,Peeragarhi  ,WEST DELHI,DELHI
110015,Ramesh Nagar  ,WEST DELHI,DELHI
110015,Ranhola  ,WEST DELHI,DELHI
110015,Tikri Kalan  ,WEST DELHI,DELHI
110015,Zakhira  ,WEST DELHI,DELHI
110015,Fateh Nagar  ,WEST DELHI,DELHI
110015,Mahabir Nagar  ,WEST DELHI,DELHI
