Pincode,Location,District,State
400004,Ambewadi,Ambewadi,Maharashtra
400004,Charni Road,Ambewadi,Maharashtra
400004,Chaupati,Ambewadi,Maharashtra
400004,Girgaon,Ambewadi,Maharashtra
400004,Madhavbaug,Ambewadi,Maharashtra
400004,Opera House,Ambewadi,Maharashtra
400052,Danda,Andheri,Maharashtra
400052,Khar Colony,Andheri,Maharashtra
400052,Khar Delivery,Andheri,Maharashtra
400052,Andheri,Andheri,Maharashtra
400052,Azad Nagar,Andheri,Maharashtra
400052,Santacruz Central,Andheri,Maharashtra
400052,Santacruz(west),Andheri,Maharashtra
400028,Bhawani Shankar,Bhawani Shankar,Maharashtra
400028,Bhawani Shankar rd,Bhawani Shankar,Maharashtra
400028,Gokhale Road,Bhawani Shankar,Maharashtra
400028,Ranade Road,Bhawani Shankar,Maharashtra
400028,S Savarkar marg,Bhawani Shankar,Maharashtra
400028,Shivaji Park,Bhawani Shankar,Maharashtra
400028,Agripada,Bhawani Shankar,Maharashtra
400028,Chinchpokli,Bhawani Shankar,Maharashtra
400028,Haines Road,Bhawani Shankar,Maharashtra
400028,Jacob Circle,Bhawani Shankar,Maharashtra
400017,Dharavi,Churchgate,Maharashtra
400017,Dharavi Road,Churchgate,Maharashtra
400017,Worli,Churchgate,Maharashtra
400017,Worli Naka,Churchgate,Maharashtra
400017,Matunga Railway workshop,Churchgate,Maharashtra
400017,Central Building,Churchgate,Maharashtra
400017,Churchgate,Churchgate,Maharashtra
400017,Marine Lines,Churchgate,Maharashtra
400021,Nariman Point,Churchgate,Maharashtra
400021,New Yogakshema,Churchgate,Maharashtra
400021,New Prabhadevi road,Churchgate,Maharashtra
400021,Prabhadevi,Churchgate,Maharashtra
400021,Cumballa Hill,Churchgate,Maharashtra
400021,Cumballa Sea face,Churchgate,Maharashtra
400021,Dr Deshmukh marg,Churchgate,Maharashtra
400021,Gowalia Tank,Churchgate,Maharashtra
400005,Asvini,Colaba,Maharashtra
400005,Colaba,Colaba,Maharashtra
400005,Holiday Camp,Colaba,Maharashtra
400005,Malabar Hill,Colaba,Maharashtra
400005,Delisle Road,Colaba,Maharashtra
400005,Dadar,Colaba,Maharashtra
400005,Dadar Colony,Colaba,Maharashtra
400005,Naigaon,Colaba,Maharashtra
400005,Sewri,Colaba,Maharashtra
400061,Madh,Goregaon,Maharashtra
400061,Vesava,Goregaon,Maharashtra
400061,Goregaon,Goregaon,Maharashtra
400061,Goregaon Rs,Goregaon,Maharashtra
400061,Kalbadevi,Goregaon,Maharashtra
400061,Ramwadi,Goregaon,Maharashtra
400061,Supreme Court,Goregaon,Maharashtra
400061,Shroff Mahajan,Goregaon,Maharashtra
400061,Thakurdwar,Goregaon,Maharashtra
400064,Liberty Garden,Malad,Maharashtra
400064,Malad,Malad,Maharashtra
400064,Malad West dely,Malad,Maharashtra
400064,Orlem,Malad,Maharashtra
400064,Chinchbunder,Malad,Maharashtra
400064,Princess Dock,Malad,Maharashtra
400064,Dockyard Road,Malad,Maharashtra
400064,Mazgaon,Malad,Maharashtra
400064,Mazgaon Dock,Malad,Maharashtra
400064,Mazgaon Road,Malad,Maharashtra
400007,Bharat Nagar,Mumbai Central,Maharashtra
400007,Grant Road,Mumbai Central,Maharashtra
400007,Swami Vivekand Road,Mumbai Central,Maharashtra
400007,Tardeo,Mumbai Central,Maharashtra
400008,Falkland Road,Mumbai Central,Maharashtra
400008,Kamathipura,Mumbai Central,Maharashtra
400008,Mumbai Central,Mumbai Central,Maharashtra
400034,Hajiali,Mumbai Central,Maharashtra
400034,Tulsiwadi,Mumbai Central,Maharashtra
400051,Bhartiya Vidya Bhavan,Mumbai East,Maharashtra
400051,Bandra(east),Mumbai East,Maharashtra
400051,Government Colony,Mumbai East,Maharashtra
400051,Kherwadi,Mumbai East,Maharashtra
400051,Santacruz(east),Mumbai East,Maharashtra
400051,Vakola,Mumbai East,Maharashtra
400051,Hanuman Road,Mumbai East,Maharashtra
400051,Vileeparle (east),Mumbai East,Maharashtra
400051,Vileparle Railway station,Mumbai East,Maharashtra
400066,Borivali East,Mumbai East,Maharashtra
400066,Daulat Nagar,Mumbai East,Maharashtra
400066,Magthane,Mumbai East,Maharashtra
400066,Rajendra Nagar,Mumbai East,Maharashtra
400066,Dahisar,Mumbai East,Maharashtra
400066,Dahisar Rs,Mumbai East,Maharashtra
400066,Ketkipada,Mumbai East,Maharashtra
400066,Andheri East,Mumbai East,Maharashtra
400001,Bazargate,Navi Mumbai,Maharashtra
400001,Mumbai Port Trust,Navi Mumbai,Maharashtra
400001,Mumbai.,Navi Mumbai,Maharashtra
400001,Stock Exchange,Navi Mumbai,Maharashtra
400001,Tajmahal,Navi Mumbai,Maharashtra
400001,Town Hall,Navi Mumbai,Maharashtra
400012,Best Staff colony,Parel Naka,Maharashtra
400012,Chamarbaug,Parel Naka,Maharashtra
400012,Haffkin Institute,Parel Naka,Maharashtra
400012,Lal Baug,Parel Naka,Maharashtra
400012,Parel,Parel Naka,Maharashtra
400012,Parel Naka,Parel Naka,Maharashtra
400031,Kidwai Nagar,Wadala,Maharashtra
400031,Wadala,Wadala,Maharashtra
400031,High Court bulding,Wadala,Maharashtra
400031,Mantralaya,Wadala,Maharashtra
400031,Secretariate,Wadala,Maharashtra
400031,Cotton Exchange,Wadala,Maharashtra
400031,Kalachowki,Wadala,Maharashtra
400031,Reay Road,Wadala,Maharashtra
400031,Tank Road,Wadala,Maharashtra
